{
  "type": "FeatureCollection",
  "features": [
    {
      "type": "Feature",
      "properties": {
        "norad_id": 44333,
        "name": "AT&T T-16",
        "group": "intelsat",
        "lat": 0.007390686525838564,
        "lon": 43.80454558730009,
        "alt_km": 35787.82159950319,
        "timestamp": "2025-12-20T03:42:47.060070+00:00",
        "meta_object_name": "AT&T T-16",
        "meta_object_id": "2019-034A",
        "meta_epoch": "2025-12-19T13:25:39.897120",
        "meta_mean_motion": 1.00270126,
        "meta_eccentricity": 0.000115,
        "meta_inclination": 0.0216,
        "meta_ra_of_asc_node": 60.6149,
        "meta_arg_of_pericenter": 88.5847,
        "meta_mean_anomaly": 39.7646,
        "meta_ephemeris_type": 0,
        "meta_classification_type": "U",
        "meta_norad_cat_id": 44333,
        "meta_element_set_no": 999,
        "meta_rev_at_epoch": 2383,
        "meta_bstar": 0,
        "meta_mean_motion_dot": -9.1e-07,
        "meta_mean_motion_ddot": 0,
        "tle_line1": "1 44333U 19034A   25353.55948955 -.00000091  00000+0  00000+0 0  9991",
        "tle_line2": "2 44333   0.0216  60.6149 0001150  88.5847  39.7646  1.00270126 23831"
      },
      "geometry": {
        "type": "Point",
        "coordinates": [
          43.80454558730009,
          0.007390686525838564
        ]
      }
    },
    {
      "type": "Feature",
      "properties": {
        "norad_id": 44476,
        "name": "INTELSAT 39 (IS-39)",
        "group": "intelsat",
        "lat": -0.013914846441424218,
        "lon": -153.36787510412853,
        "alt_km": 35785.07648670773,
        "timestamp": "2025-12-20T03:42:47.060081+00:00",
        "meta_object_name": "INTELSAT 39 (IS-39)",
        "meta_object_id": "2019-049B",
        "meta_epoch": "2025-12-19T11:50:48.209856",
        "meta_mean_motion": 1.00271678,
        "meta_eccentricity": 9.34e-05,
        "meta_inclination": 0.0162,
        "meta_ra_of_asc_node": 16.1298,
        "meta_arg_of_pericenter": 115.4226,
        "meta_mean_anomaly": 196.4325,
        "meta_ephemeris_type": 0,
        "meta_classification_type": "U",
        "meta_norad_cat_id": 44476,
        "meta_element_set_no": 999,
        "meta_rev_at_epoch": 2332,
        "meta_bstar": 0,
        "meta_mean_motion_dot": 5.8e-07,
        "meta_mean_motion_ddot": 0,
        "tle_line1": "1 44476U 19049B   25353.49361354  .00000058  00000+0  00000+0 0  9992",
        "tle_line2": "2 44476   0.0162  16.1298 0000934 115.4226 196.4325  1.00271678 23322"
      },
      "geometry": {
        "type": "Point",
        "coordinates": [
          -153.36787510412853,
          -0.013914846441424218
        ]
      }
    },
    {
      "type": "Feature",
      "properties": {
        "norad_id": 46114,
        "name": "GALAXY 30 (G-30)",
        "group": "intelsat",
        "lat": 0.001335481464493566,
        "lon": 19.71710688249591,
        "alt_km": 35788.36118600215,
        "timestamp": "2025-12-20T03:42:47.060093+00:00",
        "meta_object_name": "GALAXY 30 (G-30)",
        "meta_object_id": "2020-056C",
        "meta_epoch": "2025-12-19T13:12:02.202336",
        "meta_mean_motion": 1.00273015,
        "meta_eccentricity": 0.0002025,
        "meta_inclination": 0.0093,
        "meta_ra_of_asc_node": 38.0786,
        "meta_arg_of_pericenter": 233.5866,
        "meta_mean_anomaly": 249.7539,
        "meta_ephemeris_type": 0,
        "meta_classification_type": "U",
        "meta_norad_cat_id": 46114,
        "meta_element_set_no": 999,
        "meta_rev_at_epoch": 1949,
        "meta_bstar": 0,
        "meta_mean_motion_dot": 6.1e-07,
        "meta_mean_motion_ddot": 0,
        "tle_line1": "1 46114U 20056C   25353.55002549  .00000061  00000+0  00000+0 0  9992",
        "tle_line2": "2 46114   0.0093  38.0786 0002025 233.5866 249.7539  1.00273015 19495"
      },
      "geometry": {
        "type": "Point",
        "coordinates": [
          19.71710688249591,
          0.001335481464493566
        ]
      }
    },
    {
      "type": "Feature",
      "properties": {
        "norad_id": 54026,
        "name": "GALAXY 33 (G-33)",
        "group": "intelsat",
        "lat": -0.003538459070744189,
        "lon": 11.698512752216402,
        "alt_km": 35787.81430718078,
        "timestamp": "2025-12-20T03:42:47.060105+00:00",
        "meta_object_name": "GALAXY 33 (G-33)",
        "meta_object_id": "2022-128A",
        "meta_epoch": "2025-12-19T13:14:24.484128",
        "meta_mean_motion": 1.00270988,
        "meta_eccentricity": 0.0001546,
        "meta_inclination": 0.0121,
        "meta_ra_of_asc_node": 37.1109,
        "meta_arg_of_pericenter": 230.7871,
        "meta_mean_anomaly": 246.1062,
        "meta_ephemeris_type": 0,
        "meta_classification_type": "U",
        "meta_norad_cat_id": 54026,
        "meta_element_set_no": 999,
        "meta_rev_at_epoch": 1194,
        "meta_bstar": 0,
        "meta_mean_motion_dot": 1.03e-06,
        "meta_mean_motion_ddot": 0,
        "tle_line1": "1 54026U 22128A   25353.55167227  .00000103  00000+0  00000+0 0  9997",
        "tle_line2": "2 54026   0.0121  37.1109 0001546 230.7871 246.1062  1.00270988 11949"
      },
      "geometry": {
        "type": "Point",
        "coordinates": [
          11.698512752216402,
          -0.003538459070744189
        ]
      }
    },
    {
      "type": "Feature",
      "properties": {
        "norad_id": 54027,
        "name": "GALAXY 34 (G-34)",
        "group": "intelsat",
        "lat": 0.014146902305813754,
        "lon": 15.753089424112865,
        "alt_km": 35790.2287391541,
        "timestamp": "2025-12-20T03:42:47.060117+00:00",
        "meta_object_name": "GALAXY 34 (G-34)",
        "meta_object_id": "2022-128B",
        "meta_epoch": "2025-12-19T13:10:06.061728",
        "meta_mean_motion": 1.00267598,
        "meta_eccentricity": 0.0001742,
        "meta_inclination": 0.0227,
        "meta_ra_of_asc_node": 2.2643,
        "meta_arg_of_pericenter": 259.2525,
        "meta_mean_anomaly": 255.4687,
        "meta_ephemeris_type": 0,
        "meta_classification_type": "U",
        "meta_norad_cat_id": 54027,
        "meta_element_set_no": 999,
        "meta_rev_at_epoch": 1211,
        "meta_bstar": 0,
        "meta_mean_motion_dot": 0,
        "meta_mean_motion_ddot": 0,
        "tle_line1": "1 54027U 22128B   25353.54868127  .00000000  00000+0  00000+0 0  9990",
        "tle_line2": "2 54027   0.0227   2.2643 0001742 259.2525 255.4687  1.00267598 12112"
      },
      "geometry": {
        "type": "Point",
        "coordinates": [
          15.753089424112865,
          0.014146902305813754
        ]
      }
    },
    {
      "type": "Feature",
      "properties": {
        "norad_id": 54243,
        "name": "GALAXY 31 (G-31)",
        "group": "intelsat",
        "lat": -0.0017020343965700692,
        "lon": 23.695914238876966,
        "alt_km": 35787.85318794977,
        "timestamp": "2025-12-20T03:42:47.060128+00:00",
        "meta_object_name": "GALAXY 31 (G-31)",
        "meta_object_id": "2022-153A",
        "meta_epoch": "2025-12-19T13:14:56.205024",
        "meta_mean_motion": 1.00270971,
        "meta_eccentricity": 0.0001366,
        "meta_inclination": 0.0145,
        "meta_ra_of_asc_node": 65.0111,
        "meta_arg_of_pericenter": 212.9999,
        "meta_mean_anomaly": 248.1254,
        "meta_ephemeris_type": 0,
        "meta_classification_type": "U",
        "meta_norad_cat_id": 54243,
        "meta_element_set_no": 999,
        "meta_rev_at_epoch": 533,
        "meta_bstar": 0,
        "meta_mean_motion_dot": 3.8e-07,
        "meta_mean_motion_ddot": 0,
        "tle_line1": "1 54243U 22153A   25353.55203941  .00000038  00000+0  00000+0 0  9997",
        "tle_line2": "2 54243   0.0145  65.0111 0001366 212.9999 248.1254  1.00270971  5335"
      },
      "geometry": {
        "type": "Point",
        "coordinates": [
          23.695914238876966,
          -0.0017020343965700692
        ]
      }
    },
    {
      "type": "Feature",
      "properties": {
        "norad_id": 54244,
        "name": "GALAXY 32 (G-32)",
        "group": "intelsat",
        "lat": 0.03232038028596503,
        "lon": 53.70340140845126,
        "alt_km": 35787.31330892042,
        "timestamp": "2025-12-20T03:42:47.060140+00:00",
        "meta_object_name": "GALAXY 32 (G-32)",
        "meta_object_id": "2022-153B",
        "meta_epoch": "2025-12-17T04:19:59.261664",
        "meta_mean_motion": 1.00271531,
        "meta_eccentricity": 0.000259,
        "meta_inclination": 0.0104,
        "meta_ra_of_asc_node": 339.7375,
        "meta_arg_of_pericenter": 338.8221,
        "meta_mean_anomaly": 101.4983,
        "meta_ephemeris_type": 0,
        "meta_classification_type": "U",
        "meta_norad_cat_id": 54244,
        "meta_element_set_no": 999,
        "meta_rev_at_epoch": 1131,
        "meta_bstar": 0,
        "meta_mean_motion_dot": -1.5e-06,
        "meta_mean_motion_ddot": 0,
        "tle_line1": "1 54244U 22153B   25351.18054701 -.00000150  00000+0  00000+0 0  9999",
        "tle_line2": "2 54244   0.0104 339.7375 0002590 338.8221 101.4983  1.00271531 11318"
      },
      "geometry": {
        "type": "Point",
        "coordinates": [
          53.70340140845126,
          0.03232038028596503
        ]
      }
    }
  ]
}